Goethe,e,1.61092,317.24797,80.85390,2.6426000,0.22943355,0.0250778,326.05294,11/5/1990,1950.0,12.91,0.15
Goffin,e,5.47583,167.80756,283.65215,2.5138124,0.24728900,0.0482154,138.38425,11/5/1990,1950.0,12.53,0.15
Gogol,e,1.62257,42.63544,89.19848,3.1370282,0.17738890,0.1409035,273.67229,11/5/1990,1950.0,11.91,0.15
Goldberger,e,28.55803,154.36480,208.34512,1.9787438,0.35409495,0.0461471,19.91167,11/5/1990,1950.0,13.40,0.25
Goldschmidt,e,14.09408,162.11739,347.32051,2.9957943,0.19007986,0.0733413,202.99473,11/5/1990,1950.0,10.45,0.15
Goldstone,e,9.34838,78.40573,250.06451,2.4330147,0.25970898,0.1350312,176.64148,11/5/1990,1950.0,13.00,0.25
Golia,e,9.83229,17.04836,137.31562,2.5811697,0.23767266,0.1148469,252.19418,11/5/1990,1950.0,12.10,0.25
Golson,e,5.08782,159.30346,194.42679,2.6394989,0.22983800,0.1636941,98.52981,11/5/1990,1950.0,12.10,0.25
Gomeisa,f,7:27:9,8:17,2.89,2000
Gondola,e,11.50253,321.53338,8.88173,2.7059147,0.22142820,0.0705090,291.12517,11/5/1990,1950.0,11.70,0.25
Gondolatsch,e,4.88763,129.03177,82.85258,2.2266337,0.29664082,0.0778084,87.69838,11/5/1990,1950.0,11.80,0.25
Gonnessia,e,15.09021,251.89250,206.58782,3.3523596,0.16057509,0.0204674,245.00680,11/5/1990,1950.0,9.25,0.15
Goodman,e,1.27861,294.38131,19.27994,2.1738116,0.30751848,0.1862830,79.08362,11/5/1990,1950.0,14.30,0.25
Goodricke,e,5.46860,79.97825,270.24307,2.2275461,0.29645858,0.2007317,251.00156,11/5/1990,1950.0,12.34,0.25
Gordonia,e,4.44604,208.70977,254.20102,3.0991459,0.18065128,0.1890025,151.12326,11/5/1990,1950.0,9.02,0.25
Gorgo,e,12.55904,177.55106,122.05465,3.1094579,0.17975337,0.0965452,249.60233,11/5/1990,1950.0,10.73,0.25
Gorky,e,6.27794,52.83399,334.44631,2.2338842,0.29519777,0.1716148,134.40019,11/5/1990,1950.0,12.79,0.25
Gorshkov,e,2.06405,152.66946,227.11349,3.1332949,0.17770603,0.1833161,45.26125,11/5/1990,1950.0,12.93,0.15
Gostin,e,4.30863,288.78394,154.84667,2.2243884,0.29709007,0.0864814,135.06816,11/5/1990,1950.0,13.00,0.25
Gotard,e,8.45849,356.21881,335.25237,2.3214087,0.27866130,0.2684235,355.34649,11/5/1990,1950.0,13.40,0.25
Gotha,e,13.87631,165.89685,248.79943,2.6291768,0.23119285,0.1759133,262.18018,11/5/1990,1950.0,11.29,0.15
Gothlandia,e,4.82014,4.99082,6.45417,2.1899930,0.30411649,0.1808434,196.22428,11/5/1990,1950.0,12.11,0.25
Gotho,e,15.14775,342.83085,35.65360,3.0975647,0.18078962,0.1289746,329.63844,11/5/1990,1950.0,10.60,0.25
Goto,e,13.05788,95.67194,272.81872,3.0919257,0.18128443,0.1637620,69.84087,11/5/1990,1950.0,10.75,0.15
Gradie,e,7.42788,59.75386,233.54527,2.2479923,0.29242321,0.1978834,134.51340,11/5/1990,1950.0,13.51,0.25
Graff,e,11.04140,204.94258,271.69623,3.9510005,0.12549992,0.1033788,137.76032,11/5/1990,1950.0,10.40,0.25
Grahamsmith,e,2.07588,124.08179,291.15121,3.1860080,0.17331406,0.2277623,85.95047,11/5/1990,1950.0,12.90,0.25
Gramme,e,13.40791,200.55325,201.68093,3.1949342,0.17258824,0.2093420,316.95869,11/5/1990,1950.0,11.80,0.25
Granada,e,13.04837,347.39625,313.86476,2.3792013,0.26856988,0.0584735,283.37721,11/5/1990,1950.0,11.54,0.25
Grano,e,5.11189,174.78879,51.42068,2.2031791,0.30139036,0.1167928,347.95961,11/5/1990,1950.0,12.70,0.25
Grant,e,2.47812,102.29311,308.41999,3.1043797,0.18019462,0.1641156,17.39773,11/5/1990,1950.0,12.62,0.15
Granule,e,3.03297,261.28167,327.73872,2.1836624,0.30543994,0.0900925,8.12940,11/5/1990,1950.0,12.90,0.25
Gratia,e,8.21346,98.89508,330.96553,2.7729761,0.21344446,0.1102354,145.90487,11/5/1990,1950.0,9.63,0.15
Grechko,e,0.74425,0.98814,43.13304,3.1137768,0.17937952,0.1778119,353.09178,11/5/1990,1950.0,12.60,0.25
Greenberg,e,12.81994,216.52790,114.14759,2.6008561,0.23497929,0.1885789,100.87390,11/5/1990,1950.0,12.80,0.25
Greenwich,e,25.33569,48.51545,140.35548,2.3774360,0.26886905,0.2079344,329.09627,11/5/1990,1950.0,12.55,0.25
Gregory,e,2.61563,185.96989,177.88224,2.4668340,0.25438657,0.1849935,123.16986,11/5/1990,1950.0,13.04,0.15
Gressmann,e,3.74797,46.52400,250.76660,2.2192068,0.29813120,0.1918962,259.36048,11/5/1990,1950.0,13.70,0.25
Gretia,e,9.11486,314.01911,54.85032,2.8019965,0.21013708,0.1973413,168.61083,11/5/1990,1950.0,9.23,0.15
Gretry,e,2.21834,317.00975,359.64556,2.5818134,0.23758379,0.1755724,308.38191,11/5/1990,1950.0,12.40,0.25
Griboedov,e,2.88792,61.59008,358.06521,2.9045605,0.19910558,0.0572648,263.08678,11/5/1990,1950.0,11.94,0.25
Grietje,e,24.41874,199.54093,141.59679,1.9493489,0.36213434,0.0841781,132.68209,11/5/1990,1950.0,15.10,0.25
Grinevia,e,13.27527,8.85635,18.90506,2.6068859,0.23416449,0.1750207,302.95942,11/5/1990,1950.0,12.10,0.25
Griqua,e,24.18138,120.79865,262.54114,3.2301603,0.16977274,0.3657883,111.10681,11/5/1990,1950.0,11.10,0.15
Griseldis,e,15.21182,357.28943,43.41722,3.1271056,0.17823388,0.1627293,319.98324,11/5/1990,1950.0,10.60,0.25
Grissom,e,7.31127,126.22516,247.82650,2.7484938,0.21630269,0.1601673,354.77860,11/5/1990,1950.0,12.20,0.25
Groeneveld,e,2.68058,95.55421,350.85089,3.1916045,0.17285839,0.1364998,171.65297,11/5/1990,1950.0,11.05,0.15
Grubba,e,3.69127,221.40168,93.66352,2.1962060,0.30282691,0.1881542,2.22342,11/5/1990,1950.0,11.99,0.25
Gryphia,e,3.79246,207.16901,258.37884,2.1986328,0.30232567,0.0788898,306.11545,11/5/1990,1950.0,11.89,0.25
Guacolda,e,11.46349,157.95784,146.70076,3.0581299,0.18429781,0.0662151,62.96117,11/5/1990,1950.0,12.20,0.25
Guangdong,e,9.61021,60.42597,261.00324,2.7081701,0.22115164,0.1618987,302.49768,11/5/1990,1950.0,11.34,0.15
Guangxi,e,17.08023,87.91624,351.00982,3.2033322,0.17190999,0.1478805,284.89831,11/5/1990,1950.0,11.30,0.15
Guangzhou,e,1.94136,213.97845,265.69779,2.3987056,0.26530086,0.1452361,282.09832,11/5/1990,1950.0,13.75,0.25
Gubarev,e,22.54440,305.22707,261.18475,2.3737911,0.26948856,0.2388524,10.54107,11/5/1990,1950.0,13.10,0.25
Gudiachvili,e,9.87291,148.18459,277.79282,2.7855500,0.21200087,0.1439956,10.18585,11/5/1990,1950.0,12.37,0.15
Gudrun,e,16.11339,352.07859,102.36338,3.1019167,0.18040928,0.1199455,75.88365,11/5/1990,1950.0,9.11,0.25
Gudula,e,5.27679,164.33132,237.67590,2.5409124,0.24334338,0.0227889,6.28079,11/5/1990,1950.0,10.35,0.15
Gudy,e,29.29186,273.11476,155.53637,2.3894983,0.26683574,0.1503458,81.62896,11/5/1990,1950.0,12.40,0.25
Guernica,e,0.59182,23.43418,135.74022,3.1357695,0.17749572,0.1291502,181.62465,11/5/1990,1950.0,10.80,0.25
Guest,e,5.76718,59.81073,107.68936,2.7513032,0.21597148,0.0953869,348.13332,11/5/1990,1950.0,12.60,0.25
Guinevere,e,4.49722,251.62865,184.19897,3.9813974,0.12406543,0.2743484,224.02949,11/5/1990,1950.0,11.18,0.15
Guisan,e,8.45313,22.03351,262.49177,2.5269268,0.24536639,0.1249728,189.31652,11/5/1990,1950.0,11.85,0.15
Guizhou,e,10.45491,18.33074,306.40948,3.0383811,0.18609757,0.1076204,31.05622,11/5/1990,1950.0,11.50,0.25
Gunhild,e,13.54743,105.52197,292.82995,2.8596691,0.20381231,0.0297463,191.74126,11/5/1990,1950.0,10.23,0.15
Gunila,e,14.85385,250.43612,352.60233,3.1563538,0.17576223,0.0998349,107.80413,11/5/1990,1950.0,9.58,0.15
Gunlod,e,10.22638,297.47747,243.70209,2.6095864,0.23380110,0.1165097,171.63079,11/5/1990,1950.0,10.92,0.15
Gunnie,e,10.99015,26.40109,284.04590,2.6920580,0.22314002,0.0937818,294.34401,11/5/1990,1950.0,11.39,0.15
Gunter,e,5.48274,212.03460,124.43196,2.2405943,0.29387269,0.2365574,165.32143,11/5/1990,1950.0,13.70,0.25
Guo Shou-Jing,e,2.90507,276.78900,36.16783,2.3304773,0.27703635,0.1776991,169.02996,11/5/1990,1950.0,13.20,0.25
Gutemberga,e,13.06147,284.04762,251.17899,3.2309611,0.16970963,0.0965667,57.66324,11/5/1990,1950.0,10.02,0.15
Guyhurst,e,6.74349,351.13439,186.01482,2.3684068,0.27040806,0.0445045,291.45711,11/5/1990,1950.0,13.70,0.25
Gyldenia,e,14.19924,44.52983,103.63548,3.2163784,0.17086510,0.0695182,94.03902,11/5/1990,1950.0,10.81,0.15
Gyptis,e,10.26586,195.30124,154.69500,2.7704563,0.21373572,0.1753053,163.08178,11/5/1990,1950.0,7.85,0.23
Haas,e,9.07656,142.62961,282.46959,2.8092472,0.20932406,0.1348319,317.68016,11/5/1990,1950.0,12.50,0.25
Hadar,f,14:3:50,-60:22,0.61,2000
Hadwiger,e,15.44320,27.66290,84.58918,2.5622664,0.24030769,0.0576206,343.92489,11/5/1990,1950.0,10.70,0.25
Haffner,e,0.90549,257.88802,114.67638,2.8871298,0.20091142,0.0715860,336.25843,11/5/1990,1950.0,12.30,0.25
Hagar,e,11.48601,190.60959,103.93304,2.6506811,0.22838514,0.1752974,282.21809,11/5/1990,1950.0,12.40,0.25
Hagihara,e,8.67994,300.00716,116.79500,2.9956145,0.19009697,0.0800517,233.62395,11/5/1990,1950.0,12.30,0.25
Hahn,e,3.07200,358.55453,233.92906,2.1538466,0.31180418,0.0535720,355.57103,11/5/1990,1950.0,14.00,0.25
Haidea,e,7.78178,227.04644,91.29935,3.0645298,0.18372079,0.2099136,350.67991,11/5/1990,1950.0,9.99,0.15
Hainan,e,14.78376,27.79847,338.93205,3.4258784,0.15543405,0.1123567,180.16533,11/5/1990,1950.0,10.74,0.15
Hajek,e,10.81274,46.72614,132.12753,2.5287461,0.24510165,0.0568179,126.66845,11/5/1990,1950.0,12.60,0.25
Hakoila,e,4.49390,71.81476,86.60702,2.7150258,0.22031452,0.1811518,278.67800,11/5/1990,1950.0,11.70,0.15
Hakone,e,13.39475,328.72836,80.72343,2.6885471,0.22357724,0.1159712,342.93568,11/5/1990,1950.0,10.60,0.15
Halawe,e,6.73954,203.78653,116.79353,2.5336397,0.24439189,0.2242799,244.78794,11/5/1990,1950.0,11.44,0.15
Hale,e,16.07596,58.59994,307.26175,2.8666738,0.20306574,0.2256997,303.97937,11/5/1990,1950.0,10.58,0.15
Hall,e,5.47296,251.29512,242.14004,2.2803935,0.28621302,0.0777619,221.27702,11/5/1990,1950.0,13.40,0.25
Halleria,e,5.56957,353.86209,161.72417,2.9085281,0.19869831,0.0087210,28.93577,11/5/1990,1950.0,10.76,0.15
*??Halley,e,3.47457,95.27835,179.89366,3.1547851,0.17589335,0.1559544,152.60835,11/5/1990,1950.0,11.84,0.15
Halley,e,162.238,58.154,111.857,17.9435,0.0129674,0.9673,0,1986.109,1950,3.66,7.05
Halliday,e,7.54215,69.26498,287.41330,2.3677791,0.27051559,0.1520927,227.77161,11/5/1990,1950.0,13.20,0.25
Hallstrom,e,6.64532,4.02814,191.11115,2.3972267,0.26554641,0.0865188,114.25003,11/5/1990,1950.0,13.30,0.25
Haltia,e,6.70433,73.95888,358.06063,2.5416135,0.24324270,0.1909342,22.78419,11/5/1990,1950.0,12.60,0.25
Hamal,f,2:7:10,23:27,2.01,2000
Hamburga,e,3.09336,85.54183,45.73464,2.5539419,0.24148356,0.1692140,22.19376,11/5/1990,1950.0,9.66,0.15
